STARLINK-30069          
1 56834U 23079M   26067.48212902 -.00002416  00000+0 -80472-4 0  9995
2 56834  42.9986 110.4464 0000469 272.6695  87.4103 15.26726881152740
STARLINK-31969          
1 59889U 24100E   26068.47012503 -.00001487  00000+0 -44529-4 0  9999
2 59889  43.0022 123.1512 0000846 208.8511 151.2294 15.27573262101163
